QZS-1R                  
1 49336U 21096A   23190.70604962 -.00000297  00000+0  00000+0 0  9999
2 49336  35.2387  95.7893 0757905 271.7769 307.3438  1.00249522  6243
